296P/Garradd,e,25.3038,263.5179,349.9065,3.487972,0.1513020,0.48026764,193.1172,03/17.0/2024,2000,g 14.0,4.0
# From MPC102956
297P/Beshore,e,10.6348,94.2685,138.9611,3.502677,0.1503502,0.31429307,171.1569,03/17.0/2024,2000,g 15.0,4.0
# From MPC114609
298P/Christensen,e,7.8707,52.8062,100.5940,3.589302,0.1449403,0.38641583,186.7350,03/17.0/2024,2000,g 15.0,4.0
# From MPEC 2024-EF7
299P/Catalina-PANSTARRS,e,10.4678,271.5831,323.6933,4.389619,0.1071677,0.28094897,355.2435,03/17.0/2024,2000,g 11.5,4.0
# From MPEC 2023-VM5
300P/Catalina,e,5.6755,95.6172,222.9277,2.697720,0.2224378,0.69176216,75.8270,03/17.0/2024,2000,g 16.0,4.0
# From MPC 89014
301P/LINEAR-NEAT,e,10.3321,351.0801,193.5069,5.745998,0.0715576,0.58579713,250.9639,03/17.0/2024,2000,g 13.0,4.0
# From MPEC 2023-N01
302P/Lemmon-PANSTARRS,e,6.0345,121.7154,208.5990,4.270475,0.1116837,0.22989910,320.1043,03/17.0/2024,2000,g 12.5,4.0
# From MPC 92278
303P/NEAT,e,7.0172,347.9781,357.0026,5.041761,0.0870624,0.51060900,298.6424,03/17.0/2024,2000,g 13.5,4.0
# From MPEC 2022-K19
304P/Ory,e,2.6064,58.9408,335.2588,3.150402,0.1762605,0.60099956,231.1509,03/17.0/2024,2000,g 16.5,4.0
# From MPC101100
305P/Skiff,e,11.6670,240.1475,147.3723,4.636249,0.0987311,0.69399100,335.7995,03/17.0/2024,2000,g 18.0,4.0
# From MPC 92278
306P/LINEAR,e,8.3048,341.3718,0.8915,3.124483,0.1784583,0.59278339,270.3113,03/17.0/2024,2000,g 19.0,4.0
# From MPC 92278
307P/LINEAR,e,4.4366,158.1670,222.1966,5.788212,0.0707762,0.67547430,238.2557,03/17.0/2024,2000,g 15.0,4.0
# From MPEC 2022-C56
308P/Lagerkvist-Carsenty,e,4.8533,63.0962,333.6987,6.599535,0.0581345,0.36469332,187.7504,03/17.0/2024,2000,g 13.0,2.0
# From MPEC 2024-BE0
309P/LINEAR,e,17.0217,10.1432,49.9135,4.376979,0.1076323,0.61851737,358.7084,03/17.0/2024,2000,g 15.0,4.0
# From MPEC 2024-EF7
310P/Hill,e,13.1195,8.9009,31.5697,4.185647,0.1150960,0.42267519,16.7489,03/17.0/2024,2000,g 13.5,4.0
# From MPEC 2024-A43
311P/PANSTARRS,e,4.9710,279.1716,144.2443,2.188571,0.3044130,0.11577182,22.8721,03/17.0/2024,2000,g 17.0,4.0
# From MPEC 2021-BE3
312P/NEAT,e,19.7582,144.7003,207.6612,3.471056,0.1524093,0.42719215,193.4138,03/17.0/2024,2000,g 16.0,4.0
# From MPEC 2021-S45
313P/Gibbs,e,10.9807,105.9996,254.8676,3.164198,0.1751091,0.23473635,250.4738,03/17.0/2024,2000,g 15.0,4.0
# From MPC105243
314P/Montani,e,3.9903,267.6152,213.8530,7.252287,0.0504652,0.41776193,137.0184,03/17.0/2024,2000,g  9.5,4.0
# From MPEC 2023-J29
315P/LONEOS,e,17.7322,68.6992,65.8016,4.938878,0.0897969,0.52152487,239.6703,03/17.0/2024,2000,g 11.0,4.0
# From MPC 92279
316P/LONEOS-Christensen,e,9.7950,192.1760,242.9505,4.423328,0.1059450,0.15880344,336.9940,03/17.0/2024,2000,g 13.5,4.0
# From MPEC 2020-C98
317P/WISE,e,11.9668,275.4661,334.8257,2.961270,0.1934136,0.57134365,245.2789,03/17.0/2024,2000,g 17.5,4.0
# From MPC102103
318P/McNaught-Hartley,e,17.8746,35.5632,313.3255,7.509911,0.0478908,0.67431779,146.8054,03/17.0/2024,2000,g  8.5,6.0
# From MPC 97499
319P/Catalina-McNaught,e,15.0941,111.3455,203.6583,3.563665,0.1465071,0.66632785,105.0208,03/17.0/2024,2000,g 15.0,4.0
# From MPC 96281
320P/McNaught,e,4.9035,295.9417,0.7790,3.095037,0.1810111,0.68484683,209.2036,03/17.0/2024,2000,g 20.5,4.0
# From MPC105243
321P/SOHO,e,20.0782,165.0115,172.7501,2.422372,0.2614225,0.98105513,0.0000,10/26.6080/2023,2000,g 20.0,4.0
# From MPC102103
322P/SOHO,e,11.4708,351.4958,56.9214,2.508097,0.2481348,0.97998128,0.0000,08/21.0911/2023,2000,g 19.0,4.0
# From MPEC 2023-XP6
323P/SOHO,e,5.3309,324.2799,353.1302,2.583478,0.2373542,0.98462859,0.0000,03/14.3085/2025,2000,g 20.0,4.0
# From MPEC 2021-W31
324P/LaSagra,e,21.3995,270.5771,57.5453,3.095687,0.1809541,0.15321299,189.5507,03/17.0/2024,2000,g 13.0,4.0
# From MPEC 2022-TA0
325P/Yang-Gao,e,16.7956,257.1059,344.6213,3.543127,0.1477828,0.59127409,106.3417,03/17.0/2024,2000,g 14.0,4.0
# From MPEC 2023-XP6
326P/Hill,e,2.4712,99.7873,278.6324,4.070210,0.1200270,0.31952329,9.3224,03/17.0/2024,2000,g 13.5,4.0
# From MPEC 2024-A43
327P/VanNess,e,36.2469,173.9896,185.0361,3.562272,0.1465931,0.56294440,82.3425,03/17.0/2024,2000,g 16.0,4.0
# From MPC109148
328P/LONEOS-Tucker,e,17.6756,341.6511,30.6097,4.188017,0.1149983,0.55266445,344.7077,03/17.0/2024,2000,g 14.5,4.0
# From MPC101101
329P/LINEAR-Catalina,e,21.7132,87.6857,343.5562,5.185359,0.0834710,0.67875106,252.5373,03/17.0/2024,2000,g 13.5,4.0
# From MPEC 2023-J29
330P/Catalina,e,15.7276,293.0794,188.8196,6.618328,0.0578871,0.54980517,159.6796,03/17.0/2024,2000,g 12.0,4.0
# From MPEC 2023-KD6
331P/Gibbs,e,9.7402,216.7518,184.9626,3.004377,0.1892659,0.04148737,238.0019,03/17.0/2024,2000,g 12.0,4.0
# From MPEC 2016-K18
332P/Ikeya-Murakami,e,9.3821,3.7607,152.2910,3.086893,0.1817280,0.48942630,171.1513,03/17.0/2024,2000,g 18.0,4.0
# From MPEC 2016-K18
332P-A/Ikeya-Murakami,e,9.3826,152.3094,3.7425,3.086888,0.1817284,0.48943017,171.1508,03/17.0/2024,2000,g  9.0,4.0
# From MPEC 2016-EI8
332P-B/Ikeya-Murakami,e,9.3805,3.8028,152.3711,3.082329,0.1821317,0.48970701,359.9699,03/17.0/2016,2000,g 19.0,4.0
# From MPEC 2016-K18
332P-C/Ikeya-Murakami,e,9.3816,152.3007,3.7429,3.086854,0.1817314,0.48943572,171.1677,03/17.0/2024,2000,g 16.5,4.0
# From MPEC 2016-ED0
332P-D/Ikeya-Murakami,e,9.3761,3.7923,152.4393,3.081138,0.1822373,0.48977814,359.9486,03/17.0/2016,2000,g 19.0,4.0
# From MPEC 2016-ED0
332P-E/Ikeya-Murakami,e,9.3774,3.8228,152.2825,3.079877,0.1823493,0.48922008,359.9889,03/17.0/2016,2000,g 21.0,4.0
# From MPEC 2016-ED0
332P-F/Ikeya-Murakami,e,9.5293,3.4757,152.8203,3.163214,0.1751908,0.49918860,359.8501,03/17.0/2016,2000,g 21.0,4.0
# From MPEC 2016-ED0
332P-G/Ikeya-Murakami,e,9.2523,3.6955,154.4000,3.050519,0.1849880,0.49200362,359.9006,03/19.0/2016,2000,g 19.0,4.0
# From MPC100285
332P-H/Ikeya-Murakami,e,9.3822,152.3014,3.7426,3.087036,0.1817153,0.48947136,171.0874,03/17.0/2024,2000,g 19.0,4.0
# From MPEC 2016-ED0
332P-I/Ikeya-Murakami,e,9.3791,3.8048,152.3297,3.081767,0.1821815,0.48955490,359.9360,03/17.0/2016,2000,g 20.5,2.0
# From MPEC 2016-EI8
332P-J/Ikeya-Murakami,e,9.4296,3.6729,152.7712,3.115165,0.1792596,0.49429435,359.8613,03/17.0/2016,2000,g 20.5,2.0
# From MPEC 2024-EF7
333P/LINEAR,e,132.0220,115.7010,26.0085,4.220814,0.1136606,0.73629580,330.7554,03/17.0/2024,2000,g 15.0,4.0
# From MPEC 2023-J29
334P/NEAT,e,20.3769,90.4881,90.0410,6.830312,0.0552132,0.35102223,136.8729,03/17.0/2024,2000,g 10.5,4.0
# From MPEC 2023-M14
335P/Gibbs,e,7.2937,330.8203,162.2990,3.577844,0.1456371,0.54645938,84.8950,03/17.0/2024,2000,g 16.8,4.0
# From MPC105244
336P/McNaught,e,17.8250,298.2167,308.6469,5.037759,0.0871662,0.44393085,227.2057,03/17.0/2024,2000,g 13.5,4.0
# From MPEC 2024-A43
337P/WISE,e,15.4659,105.3142,161.9659,3.295135,0.1647761,0.49854902,102.7113,03/17.0/2024,2000,g 17.0,4.0
# From MPEC 2023-J29
338P/McNaught,e,25.3867,9.7932,4.5732,3.891746,0.1283770,0.41212644,342.1583,03/17.0/2024,2000,g 12.0,4.0
# From MPC101101
339P/Gibbs,e,5.7331,27.4768,172.6961,3.700358,0.1384645,0.63566039,27.5636,03/17.0/2024,2000,g 17.0,4.0
# From MPC133426
340P/Boattini,e,2.0784,291.6706,36.0478,4.248985,0.1125321,0.28039049,300.3420,03/17.0/2024,2000,g 14.3,4.0
# From MPEC 2023-J29
341P/Gibbs,e,3.7966,29.9641,312.3255,4.288131,0.1109946,0.41547813,315.4259,03/17.0/2024,2000,g 12.5,4.0
# From MPC101101
342P/SOHO,e,11.6924,73.3161,27.6392,3.041129,0.1858454,0.98290743,0.0000,10/19.3888/2021,2000,g  9.0,4.0
# From MPEC 2023-J29
343P/NEAT-LONEOS,e,5.5960,257.0652,137.5727,5.457476,0.0773066,0.58525309,200.9815,03/17.0/2024,2000,g 14.0,4.0
# From MPEC 2023-J29
344P/Read,e,3.4983,273.1014,140.5438,4.857981,0.0920493,0.42373247,247.2932,03/17.0/2024,2000,g 13.0,4.0
# From MPEC 2022-K19
345P/LINEAR,e,2.7280,154.5951,196.6573,4.031914,0.1217411,0.22127247,339.6802,03/17.0/2024,2000,g 12.0,4.0
# From MPEC 2022-K19
346P/Catalina,e,22.2159,102.4542,336.0084,4.470902,0.1042585,0.50379123,269.5885,03/17.0/2024,2000,g 14.0,4.0
# From MPEC 2023-XP6
347P/PANSTARRS,e,11.7607,260.9876,98.3818,3.607155,0.1438655,0.38685669,34.6897,03/17.0/2024,2000,g 15.0,4.0
# From MPEC 2022-ED3
348P/PANSTARRS,e,17.7373,312.9342,135.7075,3.151940,0.1761316,0.30733509,134.4124,03/17.0/2024,2000,g 14.0,4.0
# From MPEC 2024-EF7
349P/Lemmon,e,5.4884,331.7526,255.7955,3.578399,0.1456032,0.29854609,349.6407,03/17.0/2024,2000,g 14.0,4.0
# From MPC111775
350P/McNaught,e,7.3639,65.2934,139.9128,4.081653,0.1195226,0.09433115,272.7816,03/17.0/2024,2000,g 14.0,4.0
# From MPC105244
351P/Wiegert-PANSTARRS,e,12.7760,352.6825,283.3294,4.440546,0.1053294,0.29480141,320.5563,03/17.0/2024,2000,g 12.5,4.0
# From MPEC 2023-J29
352P/Skiff,e,21.0132,28.0078,309.4048,6.651660,0.0574525,0.61696202,141.3569,03/17.0/2024,2000,g 13.2,4.0
# From MPEC 2020-AA5
353P/McNaught,e,28.4165,121.5339,230.4844,4.170652,0.1157173,0.47003257,263.2304,03/17.0/2024,2000,g 14.5,4.0
# From MPEC 2024-EF7
354P/LINEAR,e,5.2511,320.0720,132.7805,2.289698,0.2844702,0.12448314,44.1300,03/17.0/2024,2000,g 15.5,4.0
# From MPEC 2023-CD7
355P/LINEAR-NEAT,e,11.0472,51.4341,336.3332,3.469376,0.1525201,0.50804552,357.6496,03/17.0/2024,2000,g 15.5,2.0
# From MPEC 2022-F14
356P/WISE,e,9.6401,160.8146,226.1216,4.154724,0.1163833,0.35607177,264.9202,03/17.0/2024,2000,g 14.0,4.0
# From MPC114609
357P/Hill,e,6.3147,44.5808,1.4407,4.456302,0.1047712,0.43611973,221.5910,03/17.0/2024,2000,g 15.5,4.0
# From MPEC 2024-EF7
358P/PANSTARRS,e,11.0634,85.6679,299.6371,3.149850,0.1763069,0.23977767,22.4712,03/17.0/2024,2000,g 18.0,4.0
# From MPC110086
359P/LONEOS,e,10.2642,149.7757,200.2902,4.641129,0.0985754,0.32364278,236.3001,03/17.0/2024,2000,g 13.5,4.0
# From MPC108599
360P/WISE,e,24.1083,2.2144,354.2312,3.697498,0.1386252,0.49918930,332.1740,03/17.0/2024,2000,g 19.5,6.0
# From MPEC 2023-CD7
361P/Spacewatch,e,13.9027,203.2562,219.0494,4.933771,0.0899364,0.43952207,187.1776,03/17.0/2024,2000,g 12.0,4.0
# From MPEC 2017-V13
362P/,e,15.5552,192.4952,53.5469,3.973518,0.1244347,0.27870530,344.4186,03/17.0/2024,2000,g 12.9,2.0
# From MPC114609
